start=new Date('2022-02-28T00:00:00.000Z').valueOf();
sats=[{"TIME_SYSTEM":"UTC","COUNTRY_CODE":"US","CLASSIFICATION_TYPE":"U","RCS_SIZE":"LARGE","MEAN_MOTION":"15.06400864","OBJECT_NAME":"STARLINK-2755","SITE":"AFETR","EPHEMERIS_TYPE":"0","GP_ID":"197285068","SEMIMAJOR_AXIS":"6925.346","REV_AT_EPOCH":"4481","ELEMENT_SET_NO":"999","PERIOD":"95.592","MEAN_ANOMALY":"287.8999","ECCENTRICITY":"0.00017470","CENTER_NAME":"EARTH","TLE_LINE1":"1 48479U 21040BD  22058.95758111  .00002603  00000-0  19359-3 0  9994","BSTAR":"0.00019359000000","EPOCH":"2022-02-27T22:58:55.007904","OBJECT_ID":"2021-040BD","APOAPSIS":"548.421","MEAN_MOTION_DDOT":"0.0000000000000","LAUNCH_DATE":"2021-05-09","ARG_OF_PERICENTER":"72.2180","MEAN_MOTION_DOT":"0.00002603","DECAY_DATE":null,"INCLINATION":"53.0545","FILE":"3331200","OBJECT_TYPE":"PAYLOAD","PERIAPSIS":"546.001","MEAN_ELEMENT_THEORY":"SGP4","NORAD_CAT_ID":"48479","TLE_LINE2":"2 48479  53.0545 314.0027 0001747  72.2180 287.8999 15.06400864 44815","REF_FRAME":"TEME","RA_OF_ASC_NODE":"314.0027"},{"EPHEMERIS_TYPE":"0","RCS_SIZE":"LARGE","MEAN_MOTION":"15.06399871","OBJECT_NAME":"STARLINK-2690","SITE":"AFETR","COUNTRY_CODE":"US","CLASSIFICATION_TYPE":"U","TIME_SYSTEM":"UTC","MEAN_ANOMALY":"303.2247","ECCENTRICITY":"0.00015380","CENTER_NAME":"EARTH","TLE_LINE1":"1 48480U 21040BE  22058.90505495  .00003602  00000-0  26062-3 0  9995","PERIOD":"95.592","ELEMENT_SET_NO":"999","SEMIMAJOR_AXIS":"6925.349","GP_ID":"197285318","REV_AT_EPOCH":"4466","DECAY_DATE":null,"INCLINATION":"53.0559","FILE":"3331200","ARG_OF_PERICENTER":"56.8889","LAUNCH_DATE":"2021-05-09","MEAN_MOTION_DOT":"0.00003602","APOAPSIS":"548.279","MEAN_MOTION_DDOT":"0.0000000000000","BSTAR":"0.00026062000000","EPOCH":"2022-02-27T21:43:16.747680","OBJECT_ID":"2021-040BE","TLE_LINE2":"2 48480  53.0559 324.2241 0001538  56.8889 303.2247 15.06399871 44662","RA_OF_ASC_NODE":"324.2241","REF_FRAME":"TEME","MEAN_ELEMENT_THEORY":"SGP4","NORAD_CAT_ID":"48480","OBJECT_TYPE":"PAYLOAD","PERIAPSIS":"546.149"},{"GP_ID":"197286570","SEMIMAJOR_AXIS":"6925.345","REV_AT_EPOCH":"4466","ELEMENT_SET_NO":"999","PERIOD":"95.592","CENTER_NAME":"EARTH","ECCENTRICITY":"0.00017480","TLE_LINE1":"1 48481U 21040BF  22058.91884809  .00001189  00000-0  98698-4 0  9999","MEAN_ANOMALY":"296.4606","TIME_SYSTEM":"UTC","CLASSIFICATION_TYPE":"U","COUNTRY_CODE":"US","SITE":"AFETR","RCS_SIZE":"LARGE","MEAN_MOTION":"15.06401252","OBJECT_NAME":"STARLINK-2706","EPHEMERIS_TYPE":"0","PERIAPSIS":"545.999","OBJECT_TYPE":"PAYLOAD","NORAD_CAT_ID":"48481","MEAN_ELEMENT_THEORY":"SGP4","RA_OF_ASC_NODE":"324.1700","REF_FRAME":"TEME","TLE_LINE2":"2 48481  53.0549 324.1700 0001748  63.6562 296.4606 15.06401252 44667","EPOCH":"2022-02-27T22:03:08.474976","OBJECT_ID":"2021-040BF","BSTAR":"0.00009869800000","MEAN_MOTION_DDOT":"0.0000000000000","APOAPSIS":"548.420","LAUNCH_DATE":"2021-05-09","ARG_OF_PERICENTER":"63.6562","MEAN_MOTION_DOT":"0.00001189","FILE":"3331200","DECAY_DATE":null,"INCLINATION":"53.0549"},{"PERIAPSIS":"545.857","OBJECT_TYPE":"PAYLOAD","NORAD_CAT_ID":"48482","MEAN_ELEMENT_THEORY":"SGP4","RA_OF_ASC_NODE":"324.2001","REF_FRAME":"TEME","TLE_LINE2":"2 48482  53.0567 324.2001 0001971  69.9153 290.2048 15.06397330 44669","OBJECT_ID":"2021-040BG","EPOCH":"2022-02-27T21:53:53.638368","BSTAR":"0.00007458300000","MEAN_MOTION_DDOT":"0.0000000000000","APOAPSIS":"548.587","LAUNCH_DATE":"2021-05-09","ARG_OF_PERICENTER":"69.9153","MEAN_MOTION_DOT":"0.00000829","FILE":"3331200","DECAY_DATE":null,"INCLINATION":"53.0567","SEMIMAJOR_AXIS":"6925.357","GP_ID":"197286320","REV_AT_EPOCH":"4466","ELEMENT_SET_NO":"999","PERIOD":"95.592","ECCENTRICITY":"0.00019710","CENTER_NAME":"EARTH","TLE_LINE1":"1 48482U 21040BG  22058.91242637  .00000829  00000-0  74583-4 0  9994","MEAN_ANOMALY":"290.2048","TIME_SYSTEM":"UTC","CLASSIFICATION_TYPE":"U","COUNTRY_CODE":"US","SITE":"AFETR","RCS_SIZE":"LARGE","OBJECT_NAME":"STARLINK-2525","MEAN_MOTION":"15.06397330","EPHEMERIS_TYPE":"0"},{"PERIAPSIS":"545.686","OBJECT_TYPE":"PAYLOAD","NORAD_CAT_ID":"48483","MEAN_ELEMENT_THEORY":"SGP4","REF_FRAME":"TEME","RA_OF_ASC_NODE":"324.5118","TLE_LINE2":"2 48483  53.0562 324.5118 0002194  55.0166 305.1029 15.06402802 44650","EPOCH":"2022-02-27T20:13:02.448480","OBJECT_ID":"2021-040BH","BSTAR":"0.00021701000000","MEAN_MOTION_DDOT":"0.0000000000000","APOAPSIS":"548.724","MEAN_MOTION_DOT":"0.00002952","LAUNCH_DATE":"2021-05-09","ARG_OF_PERICENTER":"55.0166","FILE":"3331200","INCLINATION":"53.0562","DECAY_DATE":null,"REV_AT_EPOCH":"4465","GP_ID":"197285569","SEMIMAJOR_AXIS":"6925.340","ELEMENT_SET_NO":"999","PERIOD":"95.592","TLE_LINE1":"1 48483U 21040BH  22058.84238945  .00002952  00000-0  21701-3 0  9996","CENTER_NAME":"EARTH","ECCENTRICITY":"0.00021940","MEAN_ANOMALY":"305.1029","TIME_SYSTEM":"UTC","CLASSIFICATION_TYPE":"U","COUNTRY_CODE":"US","SITE":"AFETR","MEAN_MOTION":"15.06402802","OBJECT_NAME":"STARLINK-2531","RCS_SIZE":"LARGE","EPHEMERIS_TYPE":"0"},{"OBJECT_TYPE":"PAYLOAD","PERIAPSIS":"545.886","TLE_LINE2":"2 48484  53.0565 324.3077 0001918  61.2906 298.8275 15.06399867 44668","RA_OF_ASC_NODE":"324.3077","REF_FRAME":"TEME","MEAN_ELEMENT_THEORY":"SGP4","NORAD_CAT_ID":"48484","APOAPSIS":"548.542","MEAN_MOTION_DDOT":"0.0000000000000","BSTAR":"0.00014354000000","EPOCH":"2022-02-27T21:15:22.119552","OBJECT_ID":"2021-040BJ","INCLINATION":"53.0565","DECAY_DATE":null,"FILE":"3331200","MEAN_MOTION_DOT":"0.00001857","ARG_OF_PERICENTER":"61.2906","LAUNCH_DATE":"2021-05-09","ELEMENT_SET_NO":"999","REV_AT_EPOCH":"4466","GP_ID":"197285819","SEMIMAJOR_AXIS":"6925.349","MEAN_ANOMALY":"298.8275","TLE_LINE1":"1 48484U 21040BJ  22058.88567268  .00001857  00000-0  14354-3 0  9993","CENTER_NAME":"EARTH","ECCENTRICITY":"0.00019180","PERIOD":"95.592","COUNTRY_CODE":"US","CLASSIFICATION_TYPE":"U","TIME_SYSTEM":"UTC","EPHEMERIS_TYPE":"0","MEAN_MOTION":"15.06399867","OBJECT_NAME":"STARLINK-2696","RCS_SIZE":"LARGE","SITE":"AFETR"},{"ARG_OF_PERICENTER":"71.8250","LAUNCH_DATE":"2021-05-09","MEAN_MOTION_DOT":"0.00004094","DECAY_DATE":null,"INCLINATION":"53.0560","FILE":"3331200","BSTAR":"0.00029353000000","OBJECT_ID":"2021-040BK","EPOCH":"2022-02-27T21:59:11.821920","APOAPSIS":"548.384","MEAN_MOTION_DDOT":"0.0000000000000","MEAN_ELEMENT_THEORY":"SGP4","NORAD_CAT_ID":"48485","TLE_LINE2":"2 48485  53.0560 324.1799 0001733  71.8250 288.2928 15.06409705 44668","RA_OF_ASC_NODE":"324.1799","REF_FRAME":"TEME","OBJECT_TYPE":"PAYLOAD","PERIAPSIS":"545.984","RCS_SIZE":"LARGE","MEAN_MOTION":"15.06409705","OBJECT_NAME":"STARLINK-2500","SITE":"AFETR","EPHEMERIS_TYPE":"0","TIME_SYSTEM":"UTC","COUNTRY_CODE":"US","CLASSIFICATION_TYPE":"U","PERIOD":"95.592","MEAN_ANOMALY":"288.2928","ECCENTRICITY":"0.00017330","CENTER_NAME":"EARTH","TLE_LINE1":"1 48485U 21040BK  22058.91610905  .00004094  00000-0  29353-3 0  9996","SEMIMAJOR_AXIS":"6925.319","GP_ID":"197286070","REV_AT_EPOCH":"4466","ELEMENT_SET_NO":"999"},{"CLASSIFICATION_TYPE":"U","COUNTRY_CODE":"US","TIME_SYSTEM":"UTC","EPHEMERIS_TYPE":"0","SITE":"AFETR","MEAN_MOTION":"15.06395151","OBJECT_NAME":"STARLINK-2496","RCS_SIZE":"LARGE","ELEMENT_SET_NO":"999","REV_AT_EPOCH":"4463","SEMIMAJOR_AXIS":"6925.363","GP_ID":"197286821","TLE_LINE1":"1 48486U 21040BL  22058.72074709 -.00000468  00000-0 -12507-4 0  9999","CENTER_NAME":"EARTH","ECCENTRICITY":"0.00019010","MEAN_ANOMALY":"300.4138","PERIOD":"95.592","MEAN_MOTION_DDOT":"0.0000000000000","APOAPSIS":"548.545","OBJECT_ID":"2021-040BL","EPOCH":"2022-02-27T17:17:52.548576","BSTAR":"-0.00001250700000","FILE":"3331200","INCLINATION":"53.0561","DECAY_DATE":null,"MEAN_MOTION_DOT":"-0.00000468","ARG_OF_PERICENTER":"59.7039","LAUNCH_DATE":"2021-05-09","PERIAPSIS":"545.912","OBJECT_TYPE":"PAYLOAD","RA_OF_ASC_NODE":"325.0549","REF_FRAME":"TEME","TLE_LINE2":"2 48486  53.0561 325.0549 0001901  59.7039 300.4138 15.06395151 44636","NORAD_CAT_ID":"48486","MEAN_ELEMENT_THEORY":"SGP4"},{"COUNTRY_CODE":"US","CLASSIFICATION_TYPE":"U","TIME_SYSTEM":"UTC","EPHEMERIS_TYPE":"0","OBJECT_NAME":"STARLINK-2494","MEAN_MOTION":"15.06401659","RCS_SIZE":"LARGE","SITE":"AFETR","ELEMENT_SET_NO":"999","REV_AT_EPOCH":"4467","GP_ID":"197285069","SEMIMAJOR_AXIS":"6925.343","MEAN_ANOMALY":"301.1800","TLE_LINE1":"1 48487U 21040BM  22058.92348317 -.00000889  00000-0 -40772-4 0  9993","ECCENTRICITY":"0.00021130","CENTER_NAME":"EARTH","PERIOD":"95.592","APOAPSIS":"548.672","MEAN_MOTION_DDOT":"0.0000000000000","BSTAR":"-0.00004077200000","EPOCH":"2022-02-27T22:09:48.945888","OBJECT_ID":"2021-040BM","INCLINATION":"53.0541","DECAY_DATE":null,"FILE":"3331200","MEAN_MOTION_DOT":"-0.00000889","ARG_OF_PERICENTER":"58.9396","LAUNCH_DATE":"2021-05-09","OBJECT_TYPE":"PAYLOAD","PERIAPSIS":"545.745","TLE_LINE2":"2 48487  53.0541 324.1596 0002113  58.9396 301.1800 15.06401659 44679","RA_OF_ASC_NODE":"324.1596","REF_FRAME":"TEME","MEAN_ELEMENT_THEORY":"SGP4","NORAD_CAT_ID":"48487"},{"MEAN_ANOMALY":"279.4508","TLE_LINE1":"1 48553U 21041A   22058.83410192 -.00000170  00000-0  74536-5 0  9997","CENTER_NAME":"EARTH","ECCENTRICITY":"0.00014550","PERIOD":"95.593","ELEMENT_SET_NO":"999","REV_AT_EPOCH":"4351","SEMIMAJOR_AXIS":"6925.370","GP_ID":"197285827","EPHEMERIS_TYPE":"0","MEAN_MOTION":"15.06392887","OBJECT_NAME":"STARLINK-2063","RCS_SIZE":"LARGE","SITE":"AFETR","COUNTRY_CODE":"US","CLASSIFICATION_TYPE":"U","TIME_SYSTEM":"UTC","TLE_LINE2":"2 48553  53.0537 254.5533 0001455  80.6646 279.4508 15.06392887 43519","RA_OF_ASC_NODE":"254.5533","REF_FRAME":"TEME","MEAN_ELEMENT_THEORY":"SGP4","NORAD_CAT_ID":"48553","OBJECT_TYPE":"PAYLOAD","PERIAPSIS":"546.228","INCLINATION":"53.0537","DECAY_DATE":null,"FILE":"3331200","MEAN_MOTION_DOT":"-0.00000170","ARG_OF_PERICENTER":"80.6646","LAUNCH_DATE":"2021-05-15","APOAPSIS":"548.243","MEAN_MOTION_DDOT":"0.0000000000000","BSTAR":"0.00000745360000","EPOCH":"2022-02-27T20:01:06.405888","OBJECT_ID":"2021-041A"}];
